{
    "links": {
        "self": "http://www.neowsapp.com/rest/v1/neo/3801933?api_key=iIulBulltgU6a56xZRHN4H3l9WmuAYTsLGpBGhQ2"
    },
    "id": "3801933",
    "neo_reference_id": "3801933",
    "name": "(2018 EK4)",
    "designation": "2018 EK4",
    "nasa_jpl_url": "http://ssd.jpl.nasa.gov/sbdb.cgi?sstr=3801933",
    "absolute_magnitude_h": 24.5,
    "estimated_diameter": {
        "kilometers": {
            "estimated_diameter_min": 0.0334622374,
            "estimated_diameter_max": 0.0748238376
        },
        "meters": {
            "estimated_diameter_min": 33.4622374455,
            "estimated_diameter_max": 74.8238376074
        },
        "miles": {
            "estimated_diameter_min": 0.0207924639,
            "estimated_diameter_max": 0.0464933628
        },
        "feet": {
            "estimated_diameter_min": 109.7842471007,
            "estimated_diameter_max": 245.4850393757
        }
    },
    "is_potentially_hazardous_asteroid": false,
    "close_approach_data": [
        {
            "close_approach_date": "2018-03-10",
            "close_approach_date_full": "2018-Mar-10 22:49",
            "epoch_date_close_approach": 1520722140000,
            "relative_velocity": {
                "kilometers_per_second": "7.7410308909",
                "kilometers_per_hour": "27867.711207291",
                "miles_per_hour": "17315.9119998859"
            },
            "miss_distance": {
                "astronomical": "0.0823279576",
                "lunar": "32.0255755064",
                "kilometers": "12316087.098410312",
                "miles": "7652861.6550418256"
            },
            "orbiting_body": "Earth"
        }
    ],
    "orbital_data": {
        "orbit_id": "6",
        "orbit_determination_date": "2018-04-05 06:30:04",
        "first_observation_date": "2018-03-14",
        "last_observation_date": "2018-04-05",
        "data_arc_in_days": 22,
        "observations_used": 45,
        "orbit_uncertainty": "7",
        "minimum_orbit_intersection": ".0545381",
        "jupiter_tisserand_invariant": "4.090",
        "epoch_osculation": "2459000.5",
        "eccentricity": ".3971887684134589",
        "semi_major_axis": "1.706622343175596",
        "inclination": "8.030144917961518",
        "ascending_node_longitude": "351.5222697910053",
        "orbital_period": "814.3377497410689",
        "perihelion_distance": "1.02877111654279",
        "perihelion_argument": "154.1908857946809",
        "aphelion_distance": "2.384473569808403",
        "perihelion_time": "2458983.678730623454",
        "mean_anomaly": "7.436296521292377",
        "mean_motion": ".4420770130261891",
        "equinox": "J2000",
        "orbit_class": {
            "orbit_class_type": "AMO",
            "orbit_class_description": "Near-Earth asteroid orbits similar to that of 1221 Amor",
            "orbit_class_range": "1.017 AU < q (perihelion) < 1.3 AU"
        }
    },
    "is_sentry_object": false
}